GLOBALSTAR M068         
1 32266U 07048D   25139.44389880 -.00000101  00000+0  13612-4 0  9991
2 32266  51.9909  29.8750 0001742  69.9384 100.5414 12.62822995813922
GLOBALSTAR M079         
1 37188U 10054A   25139.50157157 -.00000085  00000+0  10277-3 0  9991
2 37188  52.0033 227.1088 0000532 168.6366 204.6833 12.62264544672834
GLOBALSTAR M074         
1 37189U 10054B   25139.52828544 -.00000086  00000+0  97436-4 0  9993
2 37189  52.0010 226.3558 0000284 125.1521 248.3982 12.62269718673444
GLOBALSTAR M076         
1 37190U 10054C   25139.55433098 -.00000091  00000+0  68530-4 0  9993
2 37190  52.0021 226.4435 0000282 172.1903 200.5857 12.62262749673164
GLOBALSTAR M077         
1 37191U 10054D   25139.38298065 -.00000098  00000+0  31351-4 0  9996
2 37191  52.0049 183.8148 0000179 148.3140 224.8949 12.62268264673513
GLOBALSTAR M075         
1 37192U 10054E   25139.64775509 -.00000070  00000+0  18683-3 0  9991
2 37192  51.9952 268.4326 0000662 115.0365 262.0155 12.62264944672243
GLOBALSTAR M073         
1 37193U 10054F   25139.40964229 -.00000094  00000+0  53093-4 0  9996
2 37193  52.0037 182.9564 0000158 192.2275 181.4506 12.62271656674201
GLOBALSTAR M083         
1 37739U 11033A   25139.26450373 -.00000111  00000+0 -39813-4 0  9999
2 37739  51.9840 132.1669 0000191 100.2642 273.6448 12.62263635643207
GLOBALSTAR M088         
1 37740U 11033B   25139.43088623 -.00000086  00000+0  10161-3 0  9999
2 37740  51.9752  37.1735 0000729  75.8090  95.8293 12.62266132638762
GLOBALSTAR M091         
1 37741U 11033C   25139.04291719 -.00000091  00000+0  69201-4 0  9995
2 37741  52.0019   1.8613 0000938 100.3559  46.6115 12.62267910639505
GLOBALSTAR M085         
1 37742U 11033D   25139.19337431 -.00000084  00000+0  10836-3 0  9995
2 37742  51.9876 312.4667 0000940 115.8306  55.5074 12.62268489640034
GLOBALSTAR M081         
1 37743U 11033E   25139.42213037 -.00000071  00000+0  18117-3 0  9993
2 37743  51.9967 314.5407 0000745 118.7323 251.7812 12.62264015640216
GLOBALSTAR M089         
1 37744U 11033F   25139.55605734 -.00000089  00000+0  81836-4 0  9995
2 37744  51.9932 268.3639 0000458 107.6815 333.0307 12.62269944641328
GLOBALSTAR M084         
1 38040U 11080A   25139.34451892 -.00000099  00000+0  24304-4 0  9996
2 38040  51.9980 136.2806 0000381 357.7167 140.2725 12.62266150619023
GLOBALSTAR M080         
1 38041U 11080B   25139.22457338 -.00000095  00000+0  49919-4 0  9990
2 38041  52.0030 138.2271 0000582  90.5209 352.1794 12.62263044619133
GLOBALSTAR M082         
1 38042U 11080C   25139.57607455 -.00000098  00000+0  29823-4 0  9991
2 38042  52.0067  92.6135 0000687  86.9395  84.1006 12.62266165619884
GLOBALSTAR M092         
1 38043U 11080D   25139.43591829 -.00000106  00000+0 -15226-4 0  9997
2 38043  52.0062 183.4179 0000199 117.6376 256.3833 12.62264421618328
GLOBALSTAR M090         
1 38044U 11080E   25139.60255914 -.00000101  00000+0  16356-4 0  9998
2 38044  51.9879  86.3768 0000464  74.9192  96.9126 12.62270171620004
GLOBALSTAR M086         
1 38045U 11080F   25139.62870868 -.00000085  00000+0  10593-3 0  9999
2 38045  51.9892  86.8458 0000556 273.2714 257.8939 12.62271022619955
GLOBALSTAR M097         
1 39072U 13005A   25139.30088972 -.00000094  00000+0  53270-4 0  9991
2 39072  52.0068   2.3640 0000673 100.0588 260.0354 12.62272032567169
GLOBALSTAR M093         
1 39073U 13005B   25139.27439132 -.00000093  00000+0  62856-4 0  9995
2 39073  51.9831 355.7933 0000755 101.3640 258.7312 12.62264642567111
GLOBALSTAR M094         
1 39074U 13005C   25139.51195603 -.00000088  00000+0  89476-4 0  9996
2 39074  51.9962 269.4227 0000780 144.8845 215.2073 12.62270874568770
GLOBALSTAR M096         
1 39075U 13005D   25139.20849345 -.00000085  00000+0  10422-3 0  9993
2 39075  52.0085 318.8396 0000941 120.1963 239.8997 12.62271367567989
GLOBALSTAR M078         
1 39076U 13005E   25139.41943162 -.00000009  00000+0  53090-3 0  9993
2 39076  51.9893  42.7436 0001448  98.0054 262.0976 12.62263484566288
GLOBALSTAR M095         
1 39077U 13005F   25139.44583477 -.00000088  00000+0  85267-4 0  9995
2 39077  51.9820  39.8741 0000938 104.2489 255.8482 12.62269689566140
GLOBALSTAR M087         
1 52888U 22064A   25139.39731189 -.00000097  00000+0  36963-4 0  9993
2 52888  51.9969 181.4493 0000321 139.5659 220.5232 12.62263247141407
